IRIDIUM 150             
1 43257U 18030J   25364.51763103  .00000299  00000+0  99743-4 0  9994
2 43257  86.3967   0.9742 0002295  88.0800 272.0659 14.34217800405983
IRIDIUM 143             
1 43258U 18030K   25364.42883160  .00000279  00000+0  92601-4 0  9995
2 43258  86.3974   1.0975 0002423  87.0850 273.0623 14.34217264405907
IRIDIUM 161             
1 43478U 18047C   25364.41771830  .00000669  00000+0  19284-3 0  9994
2 43478  86.4518 158.9987 0001798  94.0744 266.0662 14.43286360400795
IRIDIUM 152             
1 43479U 18047D   25364.47132792  .00000520  00000+0  17845-3 0  9996
2 43479  86.3993 158.8370 0001874  96.0311 264.1098 14.34218175398308
IRIDIUM 147             
1 43480U 18047E   25364.47766821  .00000521  00000+0  17887-3 0  9991
2 43480  86.3996 158.8366 0002056  90.4895 269.6536 14.34215341398305
IRIDIUM 110             
1 43481U 18047F   25364.48400553  .00000275  00000+0  90971-4 0  9992
2 43481  86.3998 158.9210 0001542  97.9801 262.1570 14.34218858398295
IRIDIUM 162             
1 43482U 18047G   25364.48074548  .00000698  00000+0  20148-3 0  9991
2 43482  86.4518 158.8655 0002116 101.7895 258.3543 14.43288727400790
IRIDIUM 160             
1 43569U 18061A   25364.36007397  .00000395  00000+0  13381-3 0  9993
2 43569  86.3995 127.3929 0001842  92.7910 267.3497 14.34218420389170
